STARLINK-32456          
1 62041U 24216K   26008.01707301  .00016422  00000+0  60478-3 0  9995
2 62041  42.9998 239.2224 0000730 285.2051  74.8720 15.27590141 64590
STARLINK-32509          
1 62042U 24216L   26008.06575256  .00014235  00000+0  52567-3 0  9993
2 62042  42.9978 238.7253 0001077 273.6105  86.4623 15.27589187 64602
STARLINK-32491          
1 62043U 24216M   26008.04051345  .00018520  00000+0  68045-3 0  9999
2 62043  43.0001 246.3178 0000903 275.5004  84.5745 15.27598174 64519
STARLINK-32577          
1 62044U 24216N   26008.07634981  .00013095  00000+0  48437-3 0  9991
2 62044  42.9950 245.7273 0001057 252.7332 107.3404 15.27591107 64539
STARLINK-32618          
1 62045U 24216P   26008.01192247  .00016901  00000+0  62224-3 0  9999
2 62045  43.0004 239.1802 0001228 264.5265  95.5446 15.27581167 64598
STARLINK-32598          
1 62046U 24216Q   26008.02718640  .00016044  00000+0  59138-3 0  9990
2 62046  42.9967 238.4400 0000990 270.4628  89.6110 15.27572992 64605
STARLINK-32630          
1 62047U 24216R   26008.02252132  .00027874  00000+0  10181-2 0  9997
2 62047  42.9987 246.1808 0001244 279.2900  80.7811 15.27598246 64519
STARLINK-32599          
1 62048U 24216S   26008.02638640  .00017586  00000+0  64692-3 0  9996
2 62048  42.9979 246.2092 0001122 265.9544  94.1179 15.27586644 64513
STARLINK-32473          
1 62049U 24216T   26008.00293309  .00016242  00000+0  59825-3 0  9994
2 62049  42.9985 239.1107 0001286 270.4092  89.6612 15.27590339 63436
STARLINK-32492          
1 62050U 24216U   26008.00068120  .00015745  00000+0  58030-3 0  9991
2 62050  42.9985 246.0161 0001237 272.4874  87.5836 15.27590003 64514
STARLINK-32496          
1 62051U 24216V   26008.03666487  .00018155  00000+0  66725-3 0  9993
2 62051  42.9958 246.2889 0000411  82.1872 277.9026 15.27598011 64514
STARLINK-32495          
1 62052U 24216W   26008.04805533  .00025564  00000+0  93468-3 0  9998
2 62052  43.0051 245.5089 0003452 252.1674 107.8802 15.27598208 64524
STARLINK-32494          
1 62053U 24216X   26008.07377366  .00016135  00000+0  59429-3 0  9993
2 62053  42.9985 245.7039 0001559 278.4460  81.6215 15.27594705 64521
STARLINK-32408          
1 62054U 24216Y   26007.99907708  .00017212  00000+0  63330-3 0  9996
2 62054  42.9979 239.0837 0001507 247.9197 112.1495 15.27590759 64602
STARLINK-32571          
1 62055U 24216Z   26008.02334505  .00019148  00000+0  70316-3 0  9993
2 62055  43.0024 238.4054 0001184 274.5294  85.5422 15.27597472 64708
STARLINK-11465 [DTC]    
1 62057U 24217A   26008.18659242  .00315491  00000+0  24824-2 0  9993
2 62057  53.1576   9.3108 0001310 156.5509 203.5569 15.69988743 65670
STARLINK-11426 [DTC]    
1 62058U 24217B   26008.18169120  .00222112  00000+0  17779-2 0  9993
2 62058  53.1569   9.2782 0001186 111.9133 248.2011 15.69866951 65617
STARLINK-11454 [DTC]    
1 62059U 24217C   26008.15235918  .00175064  00000+0  14162-2 0  9996
2 62059  53.1569   9.8176 0001248  84.6856 275.4305 15.69766671 65669
STARLINK-11473 [DTC]    
1 62060U 24217D   26008.16216980  .00240942  00000+0  19284-2 0  9995
2 62060  53.1573   9.8828 0001364 103.7976 256.3194 15.69810221 65660
STARLINK-11429 [DTC]    
1 62061U 24217E   26008.14745399  .00189675  00000+0  15319-2 0  9995
2 62061  53.1574   9.7843 0001194  68.0663 292.0481 15.69757714 65668
STARLINK-11470 [DTC]    
1 62062U 24217F   26008.14254457  .00214904  00000+0  17206-2 0  9997
2 62062  53.1579   9.7499 0003156 149.3665 210.7538 15.69882851 65601
STARLINK-11427 [DTC]    
1 62063U 24217G   26008.15726330  .00198193  00000+0  15973-2 0  9993
2 62063  53.1574   9.8500 0001173  67.7373 292.3769 15.69779959 65669
STARLINK-11456 [DTC]    
1 62064U 24217H   26008.19149766  .00309466  00000+0  24444-2 0  9990
2 62064  53.1574   9.3414 0002347 151.1946 208.9202 15.69913603 65679
STARLINK-11474 [DTC]    
1 62065U 24217J   26008.17678534  .00162815  00000+0  13189-2 0  9998
2 62065  53.1584   9.2432 0001274  92.7718 267.3446 15.69776900 65671
STARLINK-11463 [DTC]    
1 62066U 24217K   26008.01030485  .00184225  00000+0  14850-2 0  9994
2 62066  53.1573  10.3461 0000945 113.4886 246.6231 15.69823051 65645
STARLINK-11472 [DTC]    
1 62067U 24217L   26008.17197803  .00236320  00000+0  18927-2 0  9993
2 62067  53.1577   9.9446 0001032  68.8502 291.2626 15.69808103 65592
STARLINK-11467 [DTC]    
1 62068U 24217M   26008.19640394  .00191604  00000+0  15504-2 0  9997
2 62068  53.1579   9.3712 0001275  73.6996 286.4162 15.69705527 65671
STARLINK-11460 [DTC]    
1 62069U 24217N   26008.16707514  .00144914  00000+0  11775-2 0  9991
2 62069  53.1568   9.9119 0001074  61.2302 298.8824 15.69764823 65607
STARLINK-32604          
1 62070U 24217P   26007.98635086  .00027883  00000+0  94990-3 0  9992
2 62070  53.1571 116.1238 0001092  79.3094 280.8030 15.30204338 64128
STARLINK-32553          
1 62071U 24217Q   26007.98529424  .00020954  00000+0  71758-3 0  9990
2 62071  53.1570 116.1198 0001023  80.6625 279.4491 15.30200235 64174
STARLINK-32603          
1 62072U 24217R   26007.58179792  .00025506  00000+0  87039-3 0  9993
2 62072  53.1584 117.8646 0001189 101.6825 258.4310 15.30197676 64110
STARLINK-32444          
1 62073U 24217S   26007.77141387  .00014031  00000+0  48493-3 0  9996
2 62073  53.1580 116.9352 0001147  79.1776 280.9354 15.30201053 64099
STARLINK-32619          
1 62074U 24217T   26007.99057092  .00019360  00000+0  66398-3 0  9994
2 62074  53.1573 116.1482 0001170  83.4230 276.6904 15.30205107 64128
STARLINK-32580          
1 62075U 24217U   26007.97840249  .00023708  00000+0  80986-3 0  9997
2 62075  53.1612 103.2926 0002104  61.7181 298.4032 15.30206250 64309
STARLINK-32617          
1 62076U 24217V   26007.95202648  .00018121  00000+0  62234-3 0  9990
2 62076  53.1562 103.1280 0000950  84.6819 275.4290 15.30204972 64305
SUPERVIEW NEO-2 03      
1 62079U 24218B   26007.59073877  .00002547  00000+0  12242-3 0  9993
2 62079  97.4397  17.2210 0001632  88.1933 271.9489 15.19719964 62057
SUPERVIEW NEO-2 04      
1 62080U 24218C   26007.59073757  .00003086  00000+0  14767-3 0  9995
2 62080  97.4397  17.2262 0001369 111.9864 248.1517 15.19720563 62056
KINEIS-5C               
1 62081U 24219A   26008.21460731  .00001164  00000+0  19197-3 0  9996
2 62081  97.9879 170.7372 0002186 133.3288 226.8102 14.72288848 60212
KINEIS-5D               
1 62082U 24219B   26008.24795316  .00001140  00000+0  18793-3 0  9995
2 62082  97.9819 170.8209 0003122 125.3947 234.7553 14.72352902 60223
KINEIS-5E               
1 62083U 24219C   26008.19753051  .00000881  00000+0  14713-3 0  9999
2 62083  97.9878 170.9045 0001587 106.8422 253.2960 14.72326883 60220
KINEIS-5A               
1 62084U 24219D   26008.16283162  .00000888  00000+0  14809-3 0  9991
2 62084  97.9841 170.9534 0003772  96.3684 263.7953 14.72364697 60228
KINEIS-5B               
1 62085U 24219E   26008.21954595  .00001928  00000+0  27572-3 0  9990
2 62085  97.9861 173.1976 0002884  76.1097 284.0434 14.77782727 60372
STARLINK-11384 [DTC]    
1 62088U 24220A   26007.80687289  .00217478  00000+0  16495-2 0  9992
2 62088  42.9986  50.4352 0002029 272.9573  87.1063 15.70910671 65475
STARLINK-11379 [DTC]    
1 62089U 24220B   26007.80156055  .00175625  00000+0  13395-2 0  9998
2 62089  42.9985  50.3918 0003002 282.4312  77.6219 15.70907086 65373
STARLINK-11387 [DTC]    
1 62090U 24220C   26008.11417073  .00179646  00000+0  13669-2 0  9996
2 62090  42.9979  48.4330 0000485 157.2986 202.7903 15.70954443 65529
STARLINK-11389 [DTC]    
1 62091U 24220D   26008.17244348  .00195186  00000+0  14849-2 0  9994
2 62091  43.0003  48.0071 0002328 279.3837  80.6768 15.70907678 65437
STARLINK-11388 [DTC]    
1 62092U 24220E   26008.10355225  .00189435  00000+0  14411-2 0  9990
2 62092  42.9995  48.3469 0002325 265.2626  94.7976 15.70926746 65420
STARLINK-11345 [DTC]    
1 62093U 24220F   26008.16182241  .00182192  00000+0  13907-2 0  9995
2 62093  43.0018  47.9213 0001343 238.5014 121.5723 15.70870495 65433
STARLINK-11381 [DTC]    
1 62094U 24220G   26008.15651623  .00191649  00000+0  14567-2 0  9990
2 62094  43.0036  47.8799 0002333 265.4738  94.5864 15.70939457 65433
STARLINK-11369 [DTC]    
1 62095U 24220H   26007.83330362  .00222320  00000+0  16873-2 0  9992
2 62095  42.9985  49.7526 0001544  57.4844 302.6173 15.70880098 65481
STARLINK-11303 [DTC]    
1 62096U 24220J   26008.14589704  .00178964  00000+0  13661-2 0  9990
2 62096  43.0022  47.7936 0001731 265.4997  94.5673 15.70879414 65535
STARLINK-11367 [DTC]    
1 62097U 24220K   26007.82267579  .00232284  00000+0  17529-2 0  9991
2 62097  43.0001  49.6671 0001899 296.7582  63.3091 15.70984710 65480
STARLINK-11386 [DTC]    
1 62098U 24220L   26008.13527818  .00252241  00000+0  18989-2 0  9998
2 62098  42.9989  47.7063 0001697 216.2885 143.7868 15.70981968 65439
STARLINK-11380 [DTC]    
1 62099U 24220M   26008.12996909  .00213334  00000+0  16111-2 0  9994
2 62099  42.9977  47.6641 0001509 247.0695 113.0013 15.71026890 65438
STARLINK-33566          
1 62100U 24220N   26008.15979503  .00019480  00000+0  71544-3 0  9999
2 62100  43.0031 172.6772 0001665 267.7235  92.3426 15.27584213 64109
STARLINK-33545          
1 62101U 24220P   26007.55027649  .00016000  00000+0  58987-3 0  9999
2 62101  43.0006 190.5752 0000953 254.1948 105.8799 15.27569267 63675
STARLINK-33562          
1 62102U 24220Q   26007.49643654  .00010530  00000+0  39156-3 0  9992
2 62102  43.0013 191.0345 0001332 273.4990  86.5709 15.27584416 63669
STARLINK-33554          
1 62103U 24220R   26007.80794854  .00015625  00000+0  57616-3 0  9998
2 62103  43.0003 189.0689 0001456 266.0007  94.0678 15.27576402 63644
STARLINK-33555          
1 62104U 24220S   26007.77598322  .00019562  00000+0  71843-3 0  9999
2 62104  42.9994 189.6832 0001451 264.9058  95.1628 15.27583475 63843
